IDEFIX & ARIANE 42P R/B 
1 27422U 02021B   25354.76428372  .00000192  00000+0  89726-4 0  9997
2 27422  98.5797 289.3513 0012871  62.0508 298.1977 14.30955531232731
AQUA                    
1 27424U 02022A   25354.90603153  .00000615  00000+0  13306-3 0  9998
2 27424  98.4047 315.9181 0001418 110.6839 325.0971 14.61819722257229
CZ-4B R/B               
1 27432U 02024C   25355.13240022  .00000040  00000+0  43733-4 0  9997
2 27432  98.8987  43.8745 0049270 245.6163 168.9094 14.14529417218139
MIDORI II (ADEOS-II)    
1 27597U 02056A   25354.90640756  .00000171  00000+0  85046-4 0  9994
2 27597  98.7649 307.9060 0000608 150.1626 209.9590 14.29210583199047
H-2A R/B                
1 27601U 02056E   25355.18551036  .00000264  00000+0  10712-3 0  9993
2 27601  98.3077 313.6063 0071105  36.3231 335.0829 14.33682740202862
CZ-4B R/B               
1 28059U 03049C   25354.91714512  .00000286  00000+0  77208-4 0  9992
2 28059  98.6792 341.7901 0049320 111.5785 249.0676 14.54916494175147
CZ-2C R/B               
1 28222U 04012C   25355.16493247  .00027499  00000+0  39244-3 0  9994
2 28222  97.7406  48.4856 0016526 237.4947 122.4710 15.56098561192030
SL-16 R/B               
1 28353U 04021B   25355.10714119 -.00000033  00000+0  77655-5 0  9993
2 28353  71.0006  37.4061 0004843 186.0827 174.0238 14.14578748111725
CZ-4B R/B               
1 28415U 04035C   25355.07785281  .00005621  00000+0  20878-3 0  9991
2 28415  97.3592  25.3109 0031587 246.3904 113.4018 15.27495391167906
CZ-2C R/B               
1 28480U 04046B   25355.02268784  .00000162  00000+0  75101-4 0  9999
2 28480  98.1996 269.8858 0140116  27.9531 332.9087 14.26944938 97280
ARIANE 5 R/B            
1 28499U 04049H   25355.00768478  .00000832  00000+0  98836-4 0  9999
2 28499  98.2526 155.5857 0083369 245.7762 113.4723 14.85030573134111
CZ-2D R/B               
1 28738U 05024B   25354.77400427  .00020693  00000+0  32564-3 0  9991
2 28738  97.3620   2.4340 0004170 336.4208  23.6853 15.53618981127507
