CCSDS_OMM_VERS = 2.0
CREATION_DATE  = 
ORIGINATOR     = 

OBJECT_NAME    = IDEFIX & ARIANE 42P R/B
OBJECT_ID      = 2002-021B
CENTER_NAME    = EARTH
REF_FRAME      = TEME
TIME_SYSTEM    = UTC
MEAN_ELEMENT_THEORY = SGP/SGP4

EPOCH          = 2025-12-20T18:20:34.113408
MEAN_MOTION    = 14.30955531
ECCENTRICITY   = .00128714
INCLINATION    = 98.5797
RA_OF_ASC_NODE = 289.3513
ARG_OF_PERICENTER = 62.0508
MEAN_ANOMALY   = 298.1977

EPHEMERIS_TYPE = 0
CLASSIFICATION_TYPE = U
NORAD_CAT_ID   = 27422
ELEMENT_SET_NO = 999
REV_AT_EPOCH   = 23273
BSTAR          = .89725768E-4
MEAN_MOTION_DOT = .192E-5
MEAN_MOTION_DDOT = 0

CCSDS_OMM_VERS = 2.0
CREATION_DATE  = 
ORIGINATOR     = 

OBJECT_NAME    = AQUA
OBJECT_ID      = 2002-022A
CENTER_NAME    = EARTH
REF_FRAME      = TEME
TIME_SYSTEM    = UTC
MEAN_ELEMENT_THEORY = SGP/SGP4

EPOCH          = 2025-12-20T21:44:41.124192
MEAN_MOTION    = 14.61819722
ECCENTRICITY   = .0001418
INCLINATION    = 98.4047
RA_OF_ASC_NODE = 315.9181
ARG_OF_PERICENTER = 110.6839
MEAN_ANOMALY   = 325.0971

EPHEMERIS_TYPE = 0
CLASSIFICATION_TYPE = U
NORAD_CAT_ID   = 27424
ELEMENT_SET_NO = 999
REV_AT_EPOCH   = 25722
BSTAR          = .13306E-3
MEAN_MOTION_DOT = .615E-5
MEAN_MOTION_DDOT = 0

CCSDS_OMM_VERS = 2.0
CREATION_DATE  = 
ORIGINATOR     = 

OBJECT_NAME    = CZ-4B R/B
OBJECT_ID      = 2002-024C
CENTER_NAME    = EARTH
REF_FRAME      = TEME
TIME_SYSTEM    = UTC
MEAN_ELEMENT_THEORY = SGP/SGP4

EPOCH          = 2025-12-21T03:10:39.379008
MEAN_MOTION    = 14.14529417
ECCENTRICITY   = .004927
INCLINATION    = 98.8987
RA_OF_ASC_NODE = 43.8745
ARG_OF_PERICENTER = 245.6163
MEAN_ANOMALY   = 168.9094

EPHEMERIS_TYPE = 0
CLASSIFICATION_TYPE = U
NORAD_CAT_ID   = 27432
ELEMENT_SET_NO = 999
REV_AT_EPOCH   = 21813
BSTAR          = .43733E-4
MEAN_MOTION_DOT = .4E-6
MEAN_MOTION_DDOT = 0

CCSDS_OMM_VERS = 2.0
CREATION_DATE  = 
ORIGINATOR     = 

OBJECT_NAME    = MIDORI II (ADEOS-II)
OBJECT_ID      = 2002-056A
CENTER_NAME    = EARTH
REF_FRAME      = TEME
TIME_SYSTEM    = UTC
MEAN_ELEMENT_THEORY = SGP/SGP4

EPOCH          = 2025-12-20T21:45:13.613184
MEAN_MOTION    = 14.29210583
ECCENTRICITY   = .0000608
INCLINATION    = 98.7649
RA_OF_ASC_NODE = 307.9060
ARG_OF_PERICENTER = 150.1626
MEAN_ANOMALY   = 209.9590

EPHEMERIS_TYPE = 0
CLASSIFICATION_TYPE = U
NORAD_CAT_ID   = 27597
ELEMENT_SET_NO = 999
REV_AT_EPOCH   = 19904
BSTAR          = .85046E-4
MEAN_MOTION_DOT = .171E-5
MEAN_MOTION_DDOT = 0

CCSDS_OMM_VERS = 2.0
CREATION_DATE  = 
ORIGINATOR     = 

OBJECT_NAME    = H-2A R/B
OBJECT_ID      = 2002-056E
CENTER_NAME    = EARTH
REF_FRAME      = TEME
TIME_SYSTEM    = UTC
MEAN_ELEMENT_THEORY = SGP/SGP4

EPOCH          = 2025-12-21T04:27:08.095104
MEAN_MOTION    = 14.33682740
ECCENTRICITY   = .0071105
INCLINATION    = 98.3077
RA_OF_ASC_NODE = 313.6063
ARG_OF_PERICENTER = 36.3231
MEAN_ANOMALY   = 335.0829

EPHEMERIS_TYPE = 0
CLASSIFICATION_TYPE = U
NORAD_CAT_ID   = 27601
ELEMENT_SET_NO = 999
REV_AT_EPOCH   = 20286
BSTAR          = .10712E-3
MEAN_MOTION_DOT = .264E-5
MEAN_MOTION_DDOT = 0

CCSDS_OMM_VERS = 2.0
CREATION_DATE  = 
ORIGINATOR     = 

OBJECT_NAME    = CZ-4B R/B
OBJECT_ID      = 2003-049C
CENTER_NAME    = EARTH
REF_FRAME      = TEME
TIME_SYSTEM    = UTC
MEAN_ELEMENT_THEORY = SGP/SGP4

EPOCH          = 2025-12-20T22:00:41.338368
MEAN_MOTION    = 14.54916494
ECCENTRICITY   = .004932
INCLINATION    = 98.6792
RA_OF_ASC_NODE = 341.7901
ARG_OF_PERICENTER = 111.5785
MEAN_ANOMALY   = 249.0676

EPHEMERIS_TYPE = 0
CLASSIFICATION_TYPE = U
NORAD_CAT_ID   = 28059
ELEMENT_SET_NO = 999
REV_AT_EPOCH   = 17514
BSTAR          = .77208E-4
MEAN_MOTION_DOT = .286E-5
MEAN_MOTION_DDOT = 0

CCSDS_OMM_VERS = 2.0
CREATION_DATE  = 
ORIGINATOR     = 

OBJECT_NAME    = CZ-2C R/B
OBJECT_ID      = 2004-012C
CENTER_NAME    = EARTH
REF_FRAME      = TEME
TIME_SYSTEM    = UTC
MEAN_ELEMENT_THEORY = SGP/SGP4

EPOCH          = 2025-12-21T03:57:30.165408
MEAN_MOTION    = 15.56098561
ECCENTRICITY   = .0016526
INCLINATION    = 97.7406
RA_OF_ASC_NODE = 48.4856
ARG_OF_PERICENTER = 237.4947
MEAN_ANOMALY   = 122.4710

EPHEMERIS_TYPE = 0
CLASSIFICATION_TYPE = U
NORAD_CAT_ID   = 28222
ELEMENT_SET_NO = 999
REV_AT_EPOCH   = 19203
BSTAR          = .39244E-3
MEAN_MOTION_DOT = .27499E-3
MEAN_MOTION_DDOT = 0

CCSDS_OMM_VERS = 2.0
CREATION_DATE  = 
ORIGINATOR     = 

OBJECT_NAME    = SL-16 R/B
OBJECT_ID      = 2004-021B
CENTER_NAME    = EARTH
REF_FRAME      = TEME
TIME_SYSTEM    = UTC
MEAN_ELEMENT_THEORY = SGP/SGP4

EPOCH          = 2025-12-21T02:34:16.998816
MEAN_MOTION    = 14.14578748
ECCENTRICITY   = .0004843
INCLINATION    = 71.0006
RA_OF_ASC_NODE = 37.4061
ARG_OF_PERICENTER = 186.0827
MEAN_ANOMALY   = 174.0238

EPHEMERIS_TYPE = 0
CLASSIFICATION_TYPE = U
NORAD_CAT_ID   = 28353
ELEMENT_SET_NO = 999
REV_AT_EPOCH   = 11172
BSTAR          = .77655E-5
MEAN_MOTION_DOT = -.33E-6
MEAN_MOTION_DDOT = 0

CCSDS_OMM_VERS = 2.0
CREATION_DATE  = 
ORIGINATOR     = 

OBJECT_NAME    = CZ-4B R/B
OBJECT_ID      = 2004-035C
CENTER_NAME    = EARTH
REF_FRAME      = TEME
TIME_SYSTEM    = UTC
MEAN_ELEMENT_THEORY = SGP/SGP4

EPOCH          = 2025-12-21T01:52:06.482784
MEAN_MOTION    = 15.27495391
ECCENTRICITY   = .0031587
INCLINATION    = 97.3592
RA_OF_ASC_NODE = 25.3109
ARG_OF_PERICENTER = 246.3904
MEAN_ANOMALY   = 113.4018

EPHEMERIS_TYPE = 0
CLASSIFICATION_TYPE = U
NORAD_CAT_ID   = 28415
ELEMENT_SET_NO = 999
REV_AT_EPOCH   = 16790
BSTAR          = .20878E-3
MEAN_MOTION_DOT = .5621E-4
MEAN_MOTION_DDOT = 0

CCSDS_OMM_VERS = 2.0
CREATION_DATE  = 
ORIGINATOR     = 

OBJECT_NAME    = CZ-2C R/B
OBJECT_ID      = 2004-046B
CENTER_NAME    = EARTH
REF_FRAME      = TEME
TIME_SYSTEM    = UTC
MEAN_ELEMENT_THEORY = SGP/SGP4

EPOCH          = 2025-12-21T00:32:40.229376
MEAN_MOTION    = 14.26944938
ECCENTRICITY   = .0140116
INCLINATION    = 98.1996
RA_OF_ASC_NODE = 269.8858
ARG_OF_PERICENTER = 27.9531
MEAN_ANOMALY   = 332.9087

EPHEMERIS_TYPE = 0
CLASSIFICATION_TYPE = U
NORAD_CAT_ID   = 28480
ELEMENT_SET_NO = 999
REV_AT_EPOCH   = 9728
BSTAR          = .75101E-4
MEAN_MOTION_DOT = .162E-5
MEAN_MOTION_DDOT = 0

CCSDS_OMM_VERS = 2.0
CREATION_DATE  = 
ORIGINATOR     = 

OBJECT_NAME    = ARIANE 5 R/B
OBJECT_ID      = 2004-049H
CENTER_NAME    = EARTH
REF_FRAME      = TEME
TIME_SYSTEM    = UTC
MEAN_ELEMENT_THEORY = SGP/SGP4

EPOCH          = 2025-12-21T00:11:03.964992
MEAN_MOTION    = 14.85030573
ECCENTRICITY   = .0083369
INCLINATION    = 98.2526
RA_OF_ASC_NODE = 155.5857
ARG_OF_PERICENTER = 245.7762
MEAN_ANOMALY   = 113.4723

EPHEMERIS_TYPE = 0
CLASSIFICATION_TYPE = U
NORAD_CAT_ID   = 28499
ELEMENT_SET_NO = 999
REV_AT_EPOCH   = 13411
BSTAR          = .98836E-4
MEAN_MOTION_DOT = .832E-5
MEAN_MOTION_DDOT = 0

CCSDS_OMM_VERS = 2.0
CREATION_DATE  = 
ORIGINATOR     = 

OBJECT_NAME    = CZ-2D R/B
OBJECT_ID      = 2005-024B
CENTER_NAME    = EARTH
REF_FRAME      = TEME
TIME_SYSTEM    = UTC
MEAN_ELEMENT_THEORY = SGP/SGP4

EPOCH          = 2025-12-20T18:34:33.968928
MEAN_MOTION    = 15.53618981
ECCENTRICITY   = .00041706
INCLINATION    = 97.3620
RA_OF_ASC_NODE = 2.4340
ARG_OF_PERICENTER = 336.4208
MEAN_ANOMALY   = 23.6853

EPHEMERIS_TYPE = 0
CLASSIFICATION_TYPE = U
NORAD_CAT_ID   = 28738
ELEMENT_SET_NO = 999
REV_AT_EPOCH   = 12750
BSTAR          = .32564082E-3
MEAN_MOTION_DOT = .20693E-3
MEAN_MOTION_DDOT = 0

